0 COSMOS 894
1 09846U 77013A   13281.50509277  .00000074  00000-0  62669-4 0  4332
2 09846 082.9418 283.7031 0030847 154.0596 315.1903 13.73826403835990
0 COSMOS 894
1 09846U 77013A   13282.65824145  .00000081  00000-0  69928-4 0  4347
2 09846 082.9417 282.8505 0030920 150.9661 258.2880 13.73826655836154
0 COSMOS 894
1 09846U 77013A   13284.11367266  .00000079  00000-0  68130-4 0  4358
2 09846 082.9416 281.7743 0031002 147.0758 256.3627 13.73826980836352
0 COSMOS 894
1 09846U 77013A   13286.15393558  .00000040  00000-0  26593-4 0  4374
2 09846 082.9416 280.2654 0031092 141.5460 266.8962 13.73827291836630
0 COSMOS 894
1 09846U 77013A   13287.48998569  .00000029  00000-0  14728-4 0  4389
2 09846 082.9418 279.2773 0031146 137.9353 034.5935 13.73827434836811
0 COSMOS 894
1 09846U 77013A   13288.49798639  .00000040  00000-0  26368-4 0  4394
2 09846 082.9420 278.5318 0031188 135.2579 339.8127 13.73827581836950
0 COSMOS 894
1 09846U 77013A   13289.79687938  .00000051  00000-0  37986-4 0  4409
2 09846 082.9423 277.5712 0031239 131.7734 283.7197 13.73827669837133
0 COSMOS 894
1 09846U 77013A   13291.11092244  .00000047  00000-0  33337-4 0  4410
2 09846 082.9425 276.5994 0031271 128.2914 302.5103 13.73827639837317
0 COSMOS 894
1 09846U 77013A   13292.12647917  .00000056  00000-0  43434-4 0  4425
2 09846 082.9427 275.8484 0031303 125.5539 285.1402 13.73827628837455
0 COSMOS 894
1 09846U 77013A   13293.45921918  .00000078  00000-0  66316-4 0  4437
2 09846 082.9428 274.8629 0031334 121.9858 036.4363 13.73827658837630
0 COSMOS 894
1 09846U 77013A   13294.47734956  .00000081  00000-0  70241-4 0  4441
2 09846 082.9429 274.1102 0031353 119.2727 031.7634 13.73827712837771
0 COSMOS 894
1 09846U 77013A   13295.49423766  .00000088  00000-0  77356-4 0  4450
2 09846 082.9429 273.3583 0031368 116.5564 020.9532 13.73827827837910
